OBJECT_NAME,OBJECT_ID,EPOCH,MEAN_MOTION,ECCENTRICITY,INCLINATION,RA_OF_ASC_NODE,ARG_OF_PERICENTER,MEAN_ANOMALY,EPHEMERIS_TYPE,CLASSIFICATION_TYPE,NORAD_CAT_ID,ELEMENT_SET_NO,REV_AT_EPOCH,BSTAR,MEAN_MOTION_DOT,MEAN_MOTION_DDOT
IRS-P6 (RESOURCESAT-1),2003-046A,2026-07-21T14:16:46.133760,14.36173087,.00629202,98.1891,237.4222,238.3488,283.2444,0,U,28051,999,18546,.11264905E-3,.295E-5,0
SAUDISAT 2,2004-025F,2026-07-21T05:39:55.318752,14.56700415,.0024449,98.5524,203.1005,189.3225,170.7521,0,U,28371,999,17070,.4640459E-4,.158E-5,0
COSMOS 2407,2004-028A,2026-07-21T02:23:39.080832,13.76336829,.00397361,82.9584,49.7120,155.6833,321.0899,0,U,28380,999,10454,.1406456E-4,.29E-6,0
COSMOS 2414,2005-002A,2026-07-21T10:04:06.966048,13.87928821,.00390087,82.9493,17.7452,230.4979,129.2734,0,U,28521,999,8856,.38053791E-4,.61E-6,0
INMARSAT 4-F1,2005-009A,2026-07-21T08:57:38.519136,1.00273641,.00027347,5.2145,42.7960,73.8342,135.0134,0,U,28628,999,7801,0,.31E-6,0
HAMSAT (VO-52),2005-017B,2026-07-21T12:25:46.012224,15.09992849,.00172989,97.9904,227.0492,280.9073,79.0208,0,U,28650,999,15194,.19209652E-3,.3059E-4,0
NOAA 18,2005-018A,2026-07-21T14:08:20.967648,14.13734911,.00151056,98.8104,281.7657,56.2054,304.0555,0,U,28654,999,9117,.30125719E-4,.13E-6,0
SJ-7,2005-024A,2026-07-21T13:05:42.308448,15.21993175,.0013612,97.7276,233.5822,271.7524,88.2152,0,U,28737,999,15325,.28469407E-3,.644E-4,0
CUBESAT XI-V,2005-043F,2026-07-21T08:59:40.719840,14.72712744,.0015344,98.3024,358.7230,97.2573,263.0378,0,U,28895,999,10678,.15413557E-3,.932E-5,0
CLOUDSAT,2006-016A,2026-07-21T13:09:01.513152,14.86452994,.00045414,98.3912,241.7412,207.6012,152.4962,0,U,29107,999,7961,.82065547E-4,.664E-5,0
CALIPSO,2006-016B,2026-07-21T14:49:25.807584,14.69408747,.0001533,98.4472,219.4560,109.3424,250.7947,0,U,29108,999,7811,.11940486E-3,.654E-5,0
HINODE (SOLAR-B),2006-041A,2026-07-21T12:33:38.659968,14.68663632,.00175767,98.0548,218.1700,174.2351,185.9060,0,U,29479,999,5991,.85967905E-4,.452E-5,0
METOP-A,2006-044A,2026-07-21T13:17:04.528032,14.76055404,.01727265,98.3353,310.3391,320.1253,48.8095,0,U,29499,999,3052,.8112976E-4,.643E-5,0
SHIJIAN-6 02B (SJ-6 02B),2006-046B,2026-07-21T14:26:52.907136,15.01444184,.00126141,97.7142,231.4470,313.1596,46.8573,0,U,29506,999,7590,.50743661E-4,.595E-5,0
DMSP 5D-3 F17 (USA 191),2006-050A,2026-07-21T14:32:41.896608,14.14996485,.00093645,98.7390,208.4735,323.6187,36.4349,0,U,29522,999,1729,.16955513E-4,-.11E-6,0
LAPAN-TUBSAT,2007-001A,2026-07-21T14:18:45.574848,14.85978437,.00136318,98.1363,202.5992,75.2819,284.9905,0,U,29709,999,5626,-.19573021E-4,-.229E-5,0
HAIYANG-1B,2007-010A,2026-07-21T09:44:04.151904,14.31034419,.00148216,98.3520,182.9278,98.9579,261.3283,0,U,31113,999,553,.4005736E-4,.64E-6,0
BEIDOU-2 M1,2007-011A,2026-07-20T15:29:45.981312,1.77349452,.00021108,50.9225,218.1656,328.6539,31.3669,0,U,31115,999,7674,0,.51E-6,0
CAPE-1,2007-012P,2026-07-21T14:16:36.614208,14.64965305,.00825662,98.4486,178.0173,324.6802,34.8946,0,U,31130,999,2339,.18148352E-3,.965E-5,0
CBERS 2B,2007-042A,2026-07-21T08:01:40.416384,14.41490682,.00298979,98.3930,146.3909,230.6990,245.1583,0,U,32062,999,98960,.53239049E-4,.13E-5,0
COSMO-SKYMED 2,2007-059A,2026-07-21T14:11:39.400800,14.82153951,.00014747,97.8898,25.6922,94.2407,265.8975,0,U,32376,999,710,.39213321E-4,.26E-5,0
CARTOSAT-2A,2008-021A,2026-07-21T14:41:03.064128,14.79280264,.00119231,97.7612,250.1425,7.4059,352.7327,0,U,32783,999,98389,.3893158E-4,.24E-5,0
CUTE-1.7+APD II (CO-65),2008-021C,2026-07-21T14:00:39.668544,15.09735529,.00068929,97.8297,184.7297,272.1964,87.8475,0,U,32785,999,99038,.25384226E-3,.4029E-4,0
SEEDS II (CO-66),2008-021J,2026-07-21T11:05:37.720896,15.33809298,.00037431,97.7536,202.0274,143.8472,216.3023,0,U,32791,999,99254,.53390583E-3,.17397E-3,0
YUBILEINY (RS30),2008-025A,2026-07-21T14:57:55.718784,12.43180711,.00187928,82.5070,334.0188,234.1965,125.7369,0,U,32953,999,82397,-.20644528E-3,-.19E-6,0
FENGYUN 3A,2008-026A,2026-07-21T07:15:13.688064,14.19577406,.00094321,98.6886,142.4985,35.8296,324.3511,0,U,32958,999,94024,.44518867E-4,.51E-6,0
HUANJING 1A (HJ-1A),2008-041A,2026-07-21T14:54:02.989152,14.84055787,.00199213,97.6709,187.1327,29.8296,330.4050,0,U,33320,999,96351,.18346038E-4,.102E-5,0
HUANJING 1B (HJ-1B),2008-041B,2026-07-21T14:32:19.199328,14.83374607,.00379746,97.6546,190.1851,71.2555,289.2775,0,U,33321,999,96351,.13828988E-3,.1096E-4,0
SHIJIAN-6 03A (SJ-6 03A),2008-053A,2026-07-21T14:31:19.837344,15.17455300,.00094744,97.8400,237.1267,249.8181,110.2033,0,U,33408,999,96818,.24280127E-3,.4792E-4,0
SHIJIAN-6 03B (SJ-6 03B),2008-053B,2026-07-21T14:54:29.997792,15.04380399,.00178639,97.8560,223.0839,286.5781,73.3482,0,U,33409,999,96792,.21728446E-4,.239E-5,0
