{"epoch":1784710044,"count":18256,"objects":[{"id":"28051","name":"IRS P6","type":"PAYLOAD","l1":"1 28051U 03046A   26202.59497840  .00000295  00000-0  11265-3 0  9991","l2":"2 28051  98.1891 237.4222 0062920 238.3488 283.2444 14.36173087185462"},{"id":"28371","name":"SAUDISAT 2","type":"PAYLOAD","l1":"1 28371U 04025F   26202.23605693  .00000158  00000-0  46405-4 0  9995","l2":"2 28371  98.5524 203.1005 0024449 189.3225 170.7521 14.56700415170701"},{"id":"28380","name":"COSMOS 2407","type":"PAYLOAD","l1":"1 28380U 04028A   26202.09975788  .00000029  00000-0  14065-4 0  9991","l2":"2 28380  82.9584  49.7120 0039736 155.6833 321.0899 13.76336829104545"},{"id":"28521","name":"COSMOS 2414","type":"PAYLOAD","l1":"1 28521U 05002A   26202.41952507  .00000061  00000-0  38054-4 0  9991","l2":"2 28521  82.9493  17.7452 0039009 230.4979 129.2734 13.87928821 88560"},{"id":"28628","name":"INMARSAT 4-F1","type":"PAYLOAD","l1":"1 28628U 05009A   26202.37336249  .00000031  00000-0  00000-0 0  9993","l2":"2 28628   5.2145  42.7960 0002735  73.8342 135.0134  1.00273641 78014"},{"id":"28650","name":"HAMSAT","type":"PAYLOAD","l1":"1 28650U 05017B   26202.51789366  .00003059  00000-0  19210-3 0  9994","l2":"2 28650  97.9904 227.0492 0017299 280.9073  79.0208 15.09992849151946"},{"id":"28654","name":"NOAA 18","type":"PAYLOAD","l1":"1 28654U 05018A   26202.58913157  .00000013  00000-0  30126-4 0  9990","l2":"2 28654  98.8104 281.7657 0015106  56.2054 304.0555 14.13734911 91172"},{"id":"28737","name":"SJ-7","type":"PAYLOAD","l1":"1 28737U 05024A   26202.54562857  .00006440  00000-0  28469-3 0  9998","l2":"2 28737  97.7276 233.5822 0013612 271.7524  88.2152 15.21993175153258"},{"id":"28895","name":"CUBESAT XI 5","type":"PAYLOAD","l1":"1 28895U 05043F   26202.37477685  .00000932  00000-0  15414-3 0  9995","l2":"2 28895  98.3024 358.7230 0015344  97.2573 263.0378 14.72712744106788"},{"id":"29107","name":"CLOUDSAT","type":"PAYLOAD","l1":"1 29107U 06016A   26202.54793418  .00000664  00000-0  82066-4 0  9997","l2":"2 29107  98.3912 241.7412 0004541 207.6012 152.4962 14.86452994 79610"},{"id":"29108","name":"CALIPSO","type":"PAYLOAD","l1":"1 29108U 06016B   26202.61765981  .00000654  00000-0  11940-3 0  9991","l2":"2 29108  98.4472 219.4560 0001533 109.3424 250.7947 14.69408747 78119"},{"id":"29479","name":"HINODE (SOLAR B)","type":"PAYLOAD","l1":"1 29479U 06041A   26202.52336412  .00000452  00000-0  85968-4 0  9991","l2":"2 29479  98.0548 218.1700 0017577 174.2351 185.9060 14.68663632 59914"},{"id":"29499","name":"METOP-A","type":"PAYLOAD","l1":"1 29499U 06044A   26202.55352463  .00000643  00000-0  81130-4 0  9992","l2":"2 29499  98.3353 310.3391 0172726 320.1253  48.8095 14.76055404 30527"},{"id":"29506","name":"SHIJIAN 6 02B (SJ-6 02B)","type":"PAYLOAD","l1":"1 29506U 06046B   26202.60200124  .00000595  00000-0  50744-4 0  9998","l2":"2 29506  97.7142 231.4470 0012614 313.1596  46.8573 15.01444184 75903"},{"id":"29522","name":"DMSP 5D-3 F17 (USA 191)","type":"PAYLOAD","l1":"1 29522U 06050A   26202.60604047 -.00000011  00000-0  16956-4 0  9994","l2":"2 29522  98.7390 208.4735 0009365 323.6187  36.4349 14.14996485 17299"},{"id":"29709","name":"LAPAN-TUBSAT","type":"PAYLOAD","l1":"1 29709U 07001A   26202.59636082 -.00000229  00000-0 -19573-4 0  9990","l2":"2 29709  98.1363 202.5992 0013632  75.2819 284.9905 14.85978437 56267"},{"id":"31113","name":"HAIYANG 1B","type":"PAYLOAD","l1":"1 31113U 07010A   26202.40560361  .00000064  00000-0  40057-4 0  9994","l2":"2 31113  98.3520 182.9278 0014822  98.9579 261.3283 14.31034419  5537"},{"id":"31115","name":"BEIDOU 2","type":"PAYLOAD","l1":"1 31115U 07011A   26201.64567108  .00000051  00000-0  00000-0 0  9994","l2":"2 31115  50.9225 218.1656 0002111 328.6539  31.3669  1.77349452 76740"},{"id":"31130","name":"CAPE 1","type":"PAYLOAD","l1":"1 31130U 07012P   26202.59486822  .00000965  00000-0  18148-3 0  9999","l2":"2 31130  98.4486 178.0173 0082566 324.6802  34.8946 14.64965305 23392"},{"id":"32062","name":"CBERS 2B","type":"PAYLOAD","l1":"1 32062U 07042A   26202.33449556  .00000130  00000-0  53239-4 0  9997","l2":"2 32062  98.3930 146.3909 0029898 230.6990 245.1583 14.41490682989603"},{"id":"32376","name":"SKYMED 2","type":"PAYLOAD","l1":"1 32376U 07059A   26202.59142825  .00000260  00000-0  39213-4 0  9990","l2":"2 32376  97.8898  25.6922 0001475  94.2407 265.8975 14.82153951  7100"},{"id":"32783","name":"CARTOSAT 2A","type":"PAYLOAD","l1":"1 32783U 08021A   26202.61184102  .00000240  00000-0  38932-4 0  9994","l2":"2 32783  97.7612 250.1425 0011923   7.4059 352.7327 14.79280264983896"},{"id":"32785","name":"CUTE-1.7+APD 2","type":"PAYLOAD","l1":"1 32785U 08021C   26202.58379246  .00004029  00000-0  25384-3 0  9992","l2":"2 32785  97.8297 184.7297 0006893 272.1964  87.8475 15.09735529990388"},{"id":"32791","name":"SEEDS","type":"PAYLOAD","l1":"1 32791U 08021J   26202.46224214  .00017397  00000-0  53391-3 0  9991","l2":"2 32791  97.7536 202.0274 0003743 143.8472 216.3023 15.33809298992548"},{"id":"32953","name":"YUBELEINY","type":"PAYLOAD","l1":"1 32953U 08025A   26202.62356156 -.00000019  00000-0 -20645-3 0  9995","l2":"2 32953  82.5070 334.0188 0018793 234.1965 125.7369 12.43180711823971"},{"id":"32958","name":"FENGYUN 3A","type":"PAYLOAD","l1":"1 32958U 08026A   26202.30224176  .00000051  00000-0  44519-4 0  9993","l2":"2 32958  98.6886 142.4985 0009432  35.8296 324.3511 14.19577406940240"},{"id":"33320","name":"HJ-1A","type":"PAYLOAD","l1":"1 33320U 08041A   26202.62086793  .00000102  00000-0  18346-4 0  9996","l2":"2 33320  97.6709 187.1327 0019921  29.8296 330.4050 14.84055787963516"},{"id":"33321","name":"HJ-1B","type":"PAYLOAD","l1":"1 33321U 08041B   26202.60577777  .00001096  00000-0  13829-3 0  9995","l2":"2 33321  97.6546 190.1851 0037975  71.2555 289.2775 14.83374607963519"},{"id":"33408","name":"SHIJIAN 6 03A (SJ-6 03A)","type":"PAYLOAD","l1":"1 33408U 08053A   26202.60509071  .00004792  00000-0  24280-3 0  9995","l2":"2 33408  97.8400 237.1267 0009474 249.8181 110.2033 15.17455300968186"},{"id":"33409","name":"SHIJIAN 6 03B (SJ-6 03B)","type":"PAYLOAD","l1":"1 33409U 08053B   26202.62118053  .00000239  00000-0  21728-4 0  9991","l2":"2 33409  97.8560 223.0839 0017864 286.5781  73.3482 15.04380399967928"}]}